[{"OBJECT_NAME":"YAOGAN-43 01F","OBJECT_ID":"2024-148F","EPOCH":"2026-03-10T00:23:08.877408","MEAN_MOTION":15.29824616,"ECCENTRICITY":0.00057048,"INCLINATION":34.9925,"RA_OF_ASC_NODE":59.8891,"ARG_OF_PERICENTER":18.4862,"MEAN_ANOMALY":341.6062,"EPHEMERIS_TYPE":0,"CLASSIFICATION_TYPE":"U","NORAD_CAT_ID":60463,"ELEMENT_SET_NO":999,"REV_AT_EPOCH":8707,"BSTAR":0.00058388219,"MEAN_MOTION_DOT":0.00017308,"MEAN_MOTION_DDOT":0},{"OBJECT_NAME":"STARLINK-36059","OBJECT_ID":"2025-283AC","EPOCH":"2026-03-09T03:48:18.880704","MEAN_MOTION":15.30185584,"ECCENTRICITY":0.00010925,"INCLINATION":53.1616,"RA_OF_ASC_NODE":26.5714,"ARG_OF_PERICENTER":90.495,"MEAN_ANOMALY":269.6176,"EPHEMERIS_TYPE":0,"CLASSIFICATION_TYPE":"U","NORAD_CAT_ID":66904,"ELEMENT_SET_NO":999,"REV_AT_EPOCH":1576,"BSTAR":0.0010032808,"MEAN_MOTION_DOT":0.0002946,"MEAN_MOTION_DDOT":0}]
